OBJECT_NAME,OBJECT_ID,EPOCH,MEAN_MOTION,ECCENTRICITY,INCLINATION,RA_OF_ASC_NODE,ARG_OF_PERICENTER,MEAN_ANOMALY,EPHEMERIS_TYPE,CLASSIFICATION_TYPE,NORAD_CAT_ID,ELEMENT_SET_NO,REV_AT_EPOCH,BSTAR,MEAN_MOTION_DOT,MEAN_MOTION_DDOT
STARLINK-32695,2025-022N,2026-07-17T02:34:57.669024,15.34400389,.0001597,53.1584,245.7186,59.5229,300.5931,0,U,62866,999,8175,.25403E-3,.8216E-4,0
STARLINK-32846,2025-022P,2026-07-17T02:59:52.350144,15.34398671,.0001248,53.1586,247.2236,92.1134,268.0012,0,U,62867,999,8173,.22152E-3,.7115E-4,0
STARLINK-32822,2025-022Q,2026-07-17T02:35:38.264064,15.34402130,.0002069,53.1569,247.1396,55.1766,304.9431,0,U,62868,999,8173,.27279E-3,.8852E-4,0
STARLINK-32813,2025-022R,2026-07-17T03:05:56.056128,15.34398524,.0000797,53.1588,247.2691,77.1423,282.9668,0,U,62869,999,8173,.25627E-3,.8292E-4,0
STARLINK-32861,2025-022S,2026-07-17T02:37:59.244672,15.34403686,.0001569,53.1565,245.7324,74.4860,285.6316,0,U,62870,999,8175,.24695E-3,.7977E-4,0
STARLINK-32814,2025-022T,2026-07-17T04:00:20.312928,15.34397832,.000015,53.1558,246.7952,318.5106,41.5885,0,U,62871,999,8174,.34922E-3,.11441E-3,0
STARLINK-32849,2025-022U,2026-07-16T13:59:12.643872,15.34397394,.0001263,53.1567,249.5511,73.8967,286.2174,0,U,62872,999,8165,.26636E-3,.8633E-4,0
STARLINK-32833,2025-022V,2026-07-16T12:46:37.346016,15.34406939,.0000875,53.1579,249.9438,94.4449,265.6654,0,U,62873,999,8164,.24471E-3,.7903E-4,0
STARLINK-32793,2025-022W,2026-07-16T13:29:02.467968,15.34403419,.0000627,53.1573,250.1292,79.4171,280.6902,0,U,62874,999,8164,.24399E-3,.7877E-4,0
STARLINK-32834,2025-022X,2026-07-17T02:32:35.157408,15.34414523,.0003307,53.1561,247.1186,96.1520,263.9859,0,U,62875,999,8173,.19247E-3,.6134E-4,0
STARLINK-11371 [DTC],2025-024A,2026-07-17T03:31:51.969792,15.70872263,.0002846,43.0013,121.4237,286.0784,73.9770,0,U,62879,999,8382,.91454E-3,.118764E-2,0
STARLINK-11352 [DTC],2025-024B,2026-07-17T04:09:54.998208,15.70921631,.0001501,42.9986,120.7438,301.6870,58.3851,0,U,62880,999,8383,.98498E-3,.128346E-2,0
STARLINK-11382 [DTC],2025-024C,2026-07-17T04:40:29.642592,15.70867664,.000202,43.0020,120.9140,286.9131,73.1515,0,U,62881,999,8383,.79383E-3,.102802E-2,0
STARLINK-11432 [DTC],2025-024D,2026-07-16T22:49:32.797920,15.70864983,.0001538,43.0010,122.5300,277.3327,82.7366,0,U,62882,999,8379,.10934E-2,.142421E-2,0
STARLINK-11419 [DTC],2025-024E,2026-07-17T04:32:50.341056,15.70887857,.0003528,43.0039,120.8678,272.5224,87.5240,0,U,62883,999,8383,.84773E-3,.110022E-2,0
STARLINK-11437 [DTC],2025-024F,2026-07-17T03:16:34.921056,15.70850847,.0001132,43.0006,121.3364,284.8735,75.2007,0,U,62884,999,8382,.86502E-3,.112103E-2,0
STARLINK-11442 [DTC],2025-024G,2026-07-17T03:54:36.973152,15.70867949,.0002512,43.0015,120.6540,258.4696,101.5889,0,U,62885,999,8383,.10243E-2,.133271E-2,0
STARLINK-11365 [DTC],2025-024H,2026-07-16T20:24:27.781056,15.70953972,.0002144,42.9996,122.6094,193.4225,166.6586,0,U,62886,999,8378,.94322E-3,.122978E-2,0
STARLINK-11436 [DTC],2025-024J,2026-07-17T04:25:11.610624,15.70884232,.000314,43.0043,120.8225,263.1311,96.9200,0,U,62887,999,8383,.90138E-3,.117088E-2,0
STARLINK-11438 [DTC],2025-024K,2026-07-16T20:25:46.608960,15.70991087,.0002051,43.0008,122.6182,217.8259,142.2464,0,U,62888,999,8378,.1222E-2,.16043E-2,0
STARLINK-11391 [DTC],2025-024L,2026-07-16T23:42:52.257312,15.70879993,.0001882,42.9995,121.9161,255.1705,104.8954,0,U,62889,999,8380,.99351E-3,.129252E-2,0
STARLINK-11431 [DTC],2025-024M,2026-07-17T03:47:09.004704,15.70942802,.0003905,43.0023,121.5032,252.4710,107.5731,0,U,62890,999,8382,.10435E-2,.136291E-2,0
STARLINK-11435 [DTC],2025-024N,2026-07-17T03:39:31.063968,15.70940122,.0001614,43.0004,121.4612,278.8814,81.1871,0,U,62891,999,8382,.81953E-3,.106513E-2,0
STARLINK-32878,2025-024P,2026-07-16T08:45:35.427168,15.27586729,.0000562,42.9990,318.8063,233.9197,126.1603,0,U,62892,999,8194,.28069E-3,.7471E-4,0
STARLINK-32892,2025-024Q,2026-07-16T16:41:55.120704,15.27587779,.0001123,43.0003,316.9854,265.8590,94.2134,0,U,62893,999,8199,.23797E-3,.6293E-4,0
STARLINK-32909,2025-024R,2026-07-16T09:00:23.640768,15.27587719,.0003277,43.0083,318.8876,285.2983,74.7507,0,U,62894,999,8194,.32655E-3,.8737E-4,0
STARLINK-32901,2025-024S,2026-07-16T17:44:36.627648,15.27590940,.0002436,43.0023,316.4527,271.7229,88.3344,0,U,62895,999,8200,.49389E-3,.13358E-3,0
STARLINK-32890,2025-024T,2026-07-16T18:36:13.588128,15.27578560,.0001663,43.0046,315.8655,286.7281,73.3388,0,U,62896,999,8201,.41195E-3,.1109E-3,0
STARLINK-32893,2025-024U,2026-07-16T07:53:46.678272,15.27582421,.0002112,43.0041,318.5306,266.7330,93.3280,0,U,62897,999,8194,.30035E-3,.8012E-4,0
STARLINK-32902,2025-024V,2026-07-16T09:22:22.529856,15.27588136,.0001451,42.9997,318.1244,194.9254,165.1555,0,U,62898,999,8195,.31222E-3,.8341E-4,0
STARLINK-32661,2025-024W,2026-07-16T16:16:00.692256,15.27602264,.0001909,43.0022,316.8542,286.0226,74.0416,0,U,62899,999,8199,.55395E-3,.15023E-3,0
STARLINK-11552 [DTC],2025-027A,2026-07-16T17:13:14.121984,15.70841191,.0000314,42.9975,290.0365,250.1571,109.9263,0,U,62907,999,8348,.84262E-3,.109106E-2,0
STARLINK-11561 [DTC],2025-027B,2026-07-16T15:03:26.649792,15.70836562,.0001403,42.9994,290.2075,272.2956,87.7751,0,U,62908,999,8343,.75218E-3,.97187E-3,0
STARLINK-11567 [DTC],2025-027C,2026-07-16T14:33:02.615328,15.70868354,.0002229,42.9991,290.9313,269.6737,90.3875,0,U,62909,999,8342,.95077E-3,.12353E-2,0
STARLINK-11569 [DTC],2025-027D,2026-07-16T07:40:55.587648,15.70838176,.0001728,42.9971,292.2030,193.2993,166.7829,0,U,62910,999,8338,.71002E-3,.91661E-3,0
STARLINK-11537 [DTC],2025-027E,2026-07-16T06:24:39.637152,15.70866349,.0001869,43.0000,292.6787,295.0300,65.0374,0,U,62911,999,8341,.74483E-3,.96346E-3,0
STARLINK-11565 [DTC],2025-027F,2026-07-16T16:19:42.664224,15.70835790,.0001664,43.0004,289.7369,282.0688,77.9993,0,U,62912,999,8344,.49014E-3,.6291E-3,0
STARLINK-11564 [DTC],2025-027G,2026-07-16T15:49:18.876864,15.70852145,.0001686,42.9998,290.4636,270.3185,89.7490,0,U,62913,999,8343,.76148E-3,.98475E-3,0
STARLINK-11566 [DTC],2025-027H,2026-07-16T17:28:31.001376,15.70835162,.0001816,43.0012,290.1200,258.3901,101.6763,0,U,62914,999,8348,.46645E-3,.59824E-3,0
STARLINK-11555 [DTC],2025-027J,2026-07-16T17:29:49.940736,15.70855771,.0001931,43.0009,290.1292,290.5814,69.4846,0,U,62915,999,8348,.67308E-3,.86884E-3,0
STARLINK-11430 [DTC],2025-027K,2026-07-16T17:43:48.787968,15.70855951,.0000867,43.0000,290.2067,274.4045,85.6723,0,U,62916,999,8348,.86856E-3,.112595E-2,0
STARLINK-11560 [DTC],2025-027L,2026-07-16T07:48:34.103808,15.70823185,.0001332,42.9992,292.2480,221.3181,138.7586,0,U,62917,999,8338,.10265E-2,.133309E-2,0
STARLINK-11562 [DTC],2025-027M,2026-07-16T07:33:16.974720,15.70853031,.0005477,42.9980,292.1592,287.2183,72.8085,0,U,62918,999,8342,.72167E-3,.9331E-3,0
STARLINK-11457 [DTC],2025-027N,2026-07-16T14:55:48.042048,15.70822949,.0000574,42.9969,290.1572,264.8313,95.2489,0,U,62919,999,8343,.82078E-3,.106145E-2,0
STARLINK-32921,2025-027P,2026-07-17T03:41:04.769088,15.27588260,.000145,43.0031,117.6039,278.0143,82.0544,0,U,62920,999,8134,.26713E-3,.7098E-4,0
STARLINK-32917,2025-027Q,2026-07-17T04:01:25.711680,15.27590807,.0001315,43.0031,117.7026,277.0649,83.0053,0,U,62921,999,8134,.3909E-3,.10513E-3,0
STARLINK-32916,2025-027R,2026-07-17T03:46:37.440192,15.27586909,.0001571,43.0048,117.6239,268.7400,91.3272,0,U,62922,999,8134,.2976E-3,.7938E-4,0
STARLINK-32905,2025-027S,2026-07-17T04:18:04.816224,15.27588730,.0001781,43.0028,117.7895,263.4917,96.5731,0,U,62923,999,8134,.31783E-3,.8496E-4,0
STARLINK-32871,2025-027T,2026-07-16T23:13:24.627360,15.27584338,.0001068,43.0012,118.7758,262.3906,97.6824,0,U,62924,999,8131,.17779E-3,.4634E-4,0
STARLINK-32920,2025-027U,2026-07-16T23:07:51.866400,15.27584051,.0000765,43.0010,118.7514,282.4592,77.6174,0,U,62925,999,8131,.46594E-3,.12583E-3,0
STARLINK-32922,2025-027V,2026-07-16T23:30:03.483936,15.27587550,.0001535,43.0010,118.8616,236.5446,123.5259,0,U,62926,999,8131,.3994E-3,.10747E-3,0
STARLINK-32891,2025-027W,2026-07-17T04:21:47.362752,15.27588859,.0000958,42.9995,117.8099,322.1490,37.9294,0,U,62927,999,8146,.37848E-3,.1017E-3,0
STARLINK-32728,2025-029A,2026-07-16T17:11:42.316800,15.34401100,.0001188,53.1610,349.4965,99.7905,260.3232,0,U,62948,999,8116,.26372E-3,.8545E-4,0
STARLINK-32857,2025-029B,2026-07-16T20:34:19.692768,15.34431395,.0001099,53.1596,348.2478,69.4518,290.6602,0,U,62949,999,8119,.57375E-3,.19077E-3,0
STARLINK-32850,2025-029C,2026-07-16T18:48:05.545728,15.31713509,.000145,53.1602,352.0349,106.2445,253.8716,0,U,62950,999,8110,.36012E-3,.10831E-3,0
STARLINK-32875,2025-029D,2026-07-16T20:31:17.238432,15.34407963,.0001046,53.1614,348.2264,25.1517,334.9537,0,U,62951,999,8116,.37641E-3,.12366E-3,0
STARLINK-32865,2025-029E,2026-07-16T20:15:19.330272,15.31723717,.0000883,53.1603,351.7029,85.4924,274.6178,0,U,62952,999,8111,.41208E-3,.12453E-3,0
STARLINK-32884,2025-029F,2026-07-16T17:41:52.509120,15.34408694,.0001159,53.1609,348.9159,88.3721,271.7414,0,U,62953,999,8114,.56514E-3,.18771E-3,0
STARLINK-32874,2025-029G,2026-07-16T19:03:33.261408,15.34397581,.0001452,53.1611,348.5577,82.9669,277.1498,0,U,62954,999,8115,.19709E-3,.6288E-4,0
STARLINK-32880,2025-029H,2026-07-16T20:01:53.607936,15.31733492,.0001049,53.1602,351.6443,77.7996,282.3123,0,U,62955,999,8111,.38249E-3,.11535E-3,0
STARLINK-32815,2025-029J,2026-07-16T16:35:21.104736,15.34402028,.000088,53.1593,349.3375,51.1562,308.9519,0,U,62956,999,8113,.37618E-3,.12355E-3,0
STARLINK-32879,2025-029K,2026-07-16T20:48:56.066112,15.31710980,.0001248,53.1605,351.8513,95.3254,264.7889,0,U,62957,999,8110,.24096E-3,.7122E-4,0
STARLINK-32885,2025-029L,2026-07-16T19:24:45.605088,15.34406996,.0000061,53.1621,348.6453,17.1168,342.9837,0,U,62958,999,8114,.41969E-3,.13833E-3,0
STARLINK-32896,2025-029M,2026-07-16T18:10:02.337600,15.30204403,.0001208,53.1624,353.2888,84.4737,275.6402,0,U,62959,999,8107,.26303E-3,.744E-4,0
